[{"OBJECT_NAME":"OBJECT BE","OBJECT_ID":"2024-199BE","EPOCH":"2026-03-09T22:35:11.240448","MEAN_MOTION":15.34583634,"ECCENTRICITY":0.00126202,"INCLINATION":97.3163,"RA_OF_ASC_NODE":298.7137,"ARG_OF_PERICENTER":307.7021,"MEAN_ANOMALY":52.3078,"EPHEMERIS_TYPE":0,"CLASSIFICATION_TYPE":"U","NORAD_CAT_ID":61787,"ELEMENT_SET_NO":999,"REV_AT_EPOCH":12186,"BSTAR":0.00035348262,"MEAN_MOTION_DOT":0.00011799,"MEAN_MOTION_DDOT":0},{"OBJECT_NAME":"STARLINK-34849","OBJECT_ID":"2025-232A","EPOCH":"2026-03-09T19:39:11.358144","MEAN_MOTION":15.30175686,"ECCENTRICITY":0.0001522,"INCLINATION":53.159,"RA_OF_ASC_NODE":103.4335,"ARG_OF_PERICENTER":81.5244,"MEAN_ANOMALY":278.593,"EPHEMERIS_TYPE":0,"CLASSIFICATION_TYPE":"U","NORAD_CAT_ID":66005,"ELEMENT_SET_NO":999,"REV_AT_EPOCH":2344,"BSTAR":0.00075784563,"MEAN_MOTION_DOT":0.00022136,"MEAN_MOTION_DDOT":0}]
